STARLINK-1032           
1 44737U 19074AA  22201.83978149  .00001499  00000+0  11954-3 0  9997
2 44737  53.0547  47.5744 0001428  69.0822 291.0320 15.06398108148331
STARLINK-1033           
1 44738U 19074AB  22201.82504800 -.00002969  00000+0 -18060-3 0  9996
2 44738  53.0552  47.6439 0001424  81.2735 278.8416 15.06386368148496
STARLINK-1052           
1 44739U 19074AC  22201.79670323  .00022874  00000+0  11964-2 0  9997
2 44739  52.9958  35.0863 0002401  99.6211 260.5053 15.15777258148458
STARLINK-1035           
1 44740U 19074AD  22201.83609616  .00002630  00000+0  19536-3 0  9993
2 44740  53.0571  47.5970 0001537  67.7922 292.3230 15.06403639148330
STARLINK-1036           
1 44741U 19074AE  22201.84715551  .00002292  00000+0  17273-3 0  9991
2 44741  53.0566  47.5345 0001414  86.6443 273.4708 15.06400313148339
STARLINK-1038           
1 44743U 19074AG  22201.83056349  .00001373  00000+0  11107-3 0  9994
2 44743  53.0577  67.6196 0001674  77.7246 282.3931 15.06399812148147
STARLINK-1039           
1 44744U 19074AH  22201.84162128  .00000963  00000+0  83525-4 0  9997
2 44744  53.0557  67.5632 0001453  86.8713 273.2442 15.06405368148224
STARLINK-1041           
1 44746U 19074AK  22201.82688248  .00000832  00000+0  74738-4 0  9994
2 44746  53.0553  67.6370 0001502  71.4788 288.6364 15.06398160148223
STARLINK-1042           
1 44747U 19074AL  22201.85636224  .00000809  00000+0  73240-4 0  9996
2 44747  53.0548  67.5103 0001385  79.8944 280.2201 15.06395191148067
STARLINK-1043           
1 44748U 19074AM  22201.81951186  .00003122  00000+0  22837-3 0  9996
2 44748  53.0554  67.6584 0001273  78.7748 281.3384 15.06399750148053
STARLINK-1046           
1 44751U 19074AQ  22201.83424675  .00002331  00000+0  17530-3 0  9995
2 44751  53.0559  67.6012 0001526  74.8473 285.2685 15.06405798148058
STARLINK-1047           
1 44752U 19074AR  22201.85452414  .00003330  00000+0  24232-3 0  9997
2 44752  53.0554  47.5112 0001490  70.5900 289.5250 15.06405819148330
STARLINK-1048           
1 44753U 19074AS  22201.86004765  .00001736  00000+0  13536-3 0  9994
2 44753  53.0571  27.4848 0001392  90.1871 269.9278 15.06408987148611
STARLINK-1049           
1 44754U 19074AT  22201.79740139  .00000471  00000+0  50547-4 0  9998
2 44754  53.0551  27.7677 0001292  74.5794 285.5338 15.06395494148600
STARLINK-1034           
1 44757U 19074AW  22201.86558338  .00000484  00000+0  51378-4 0  9994
2 44757  53.0549  47.4587 0001432  75.0581 285.0567 15.06403060148333
STARLINK-1053           
1 44758U 19074AX  22201.81582441  .00002154  00000+0  16342-3 0  9999
2 44758  53.0547  67.7633 0001337  83.3949 276.7192 15.06405476148214
STARLINK-1054           
1 44759U 19074AY  22201.86374199 -.00001832  00000+0 -10416-3 0  9994
2 44759  53.0551  67.4566 0001236  84.2059 275.9071 15.06394344145701
STARLINK-1055           
1 44760U 19074AZ  22201.84899328  .00004527  00000+0  32249-3 0  9990
2 44760  53.0563  67.5375 0001565  74.7817 285.3344 15.06413937148235
STARLINK-1056           
1 44761U 19074BA  22201.86006338 -.00000652  00000+0 -24869-4 0  9991
2 44761  53.0564  67.4825 0001653  81.7942 278.3234 15.06389484148061
STARLINK-1057           
1 44762U 19074BB  22201.86188704  .00001230  00000+0  10144-3 0  9991
2 44762  53.0566  47.4768 0001796  85.1767 274.9427 15.06412998148332
STARLINK-1058           
1 44763U 19074BC  22201.88122435  .00001660  00000+0  13029-3 0  9995
2 44763  53.0546  67.3718 0001479  74.7857 285.3296 15.06400126148069
STARLINK-1059           
1 44764U 19074BD  22201.84767117  .00016849  00000+0  11213-2 0  9991
2 44764  53.0558  47.4375 0002605 111.1410 248.9857 15.07252038148330
STARLINK-1060           
1 44765U 19074BE  22201.87663660 -.00000099  00000+0  12270-4 0  9990
2 44765  53.0565  47.4002 0001398 101.6099 258.5047 15.06411762148339
STARLINK-1061           
1 44766U 19074BF  22201.87480416  .00001662  00000+0  13043-3 0  9991
2 44766  53.0548  67.4233 0001233  95.0194 265.0936 15.06394056148065
STARLINK-1062           
1 44767U 19074BG  22201.86648338  .00000221  00000+0  33706-4 0  9999
2 44767  53.0573  67.4449 0001536  68.8814 291.2339 15.06393607148065
STARLINK-1063           
1 44768U 19074BH  22201.82318938  .00003342  00000+0  24308-3 0  9990
2 44768  53.0541  67.6308 0001570  73.8027 286.3135 15.06408110148062
STARLINK-1067           
1 44771U 19074BL  22201.87848590  .00001694  00000+0  13256-3 0  9999
2 44771  53.0544  67.3919 0001270  64.6189 295.4932 15.06401504148064
STARLINK-1068           
1 44772U 19074BM  22201.80292988 -.00002537  00000+0 -15153-3 0  9994
2 44772  53.0545  47.7368 0001530  94.0191 266.0973 15.06387507148329
JILIN-01 GAOFEN 2A      
1 44777U 19075A   22201.89419039  .00003311  00000+0  21079-3 0  9990
2 44777  97.4113 258.1948 0006749 143.1683 303.8591 15.09416843147951
NINGXIA-1 1             
1 44779U 19076A   22201.78340534 -.00000097  00000+0  21630-4 0  9997
2 44779  45.0083  76.8076 0010386 249.7389 110.2326 14.01706829137562
NINGXIA-1 2             
1 44780U 19076B   22201.76985464 -.00000101  00000+0  18660-4 0  9999
2 44780  45.0111  76.9354 0008103 245.9991 113.9991 14.01728615137562
NINGXIA-1 3             
1 44781U 19076C   22201.89987150 -.00000074  00000+0  36162-4 0  9994
2 44781  45.0015  75.5524 0009431 233.2174 126.7792 14.01716289137585
NINGXIA-1 4             
1 44782U 19076D   22201.88373967 -.00000062  00000+0  44346-4 0  9999
2 44782  45.0109  76.1043 0012829 218.6448 141.3460 14.01715636137589
NINGXIA-1 5             
1 44783U 19076E   22201.87019721 -.00000078  00000+0  33793-4 0  9995
2 44783  45.0074  75.8157 0010990 237.4899 122.4863 14.01687568137588
KL-ALPHA A              
1 44785U 19077A   22201.79217788  .00000043  00000+0  43907-4 0  9991
2 44785  88.9225  20.1917 0010121 319.2675  40.7716 13.55815876132305
KL-ALPHA B              
1 44786U 19077B   22201.83912336  .00000022  00000+0  14578-4 0  9997
2 44786  88.9069  19.8845 0026564 353.8214   6.2607 13.55790856131763
BEIDOU-3 M21            
1 44793U 19078A   22201.60188035 -.00000111  00000+0  10000-3 0  9997
2 44793  54.9614 349.4763 0006219  23.2276 158.2737  1.86232352 18064
BEIDOU-3 M22            
1 44794U 19078B   22200.39007767 -.00000108  00000+0  00000+0 0  9996
2 44794  54.9339 349.5085 0004196  22.9787 337.7876  1.86232812 18049
COSMOS 2542             
1 44797U 19079A   22201.90697587  .00037475  25380-5  39963-3 0  9997
2 44797  97.6808 271.2203 0275612 309.6512  48.0699 15.29498918144840
TIBA-1                  
1 44800U 19080A   22201.80360769  .00000152  00000+0  00000+0 0  9996
2 44800   0.0501  18.3677 0002266 119.8851 125.0589  1.00272802  9747
INMARSAT GX5            
1 44801U 19080B   22201.81299302  .00000071  00000+0  00000+0 0  9992
2 44801   0.0527 318.5733 0001803 187.0071  96.6516  1.00273544  9793
CARTOSAT-3              
1 44804U 19081A   22201.89631874  .00003409  00000+0  16419-3 0  9991
2 44804  97.3949 262.7898 0015016  99.1229 335.1855 15.19322737146719
MESHBED                 
1 44806U 19081C   22201.72059335  .00022366  00000+0  75746-3 0  9992
2 44806  97.3997 266.8006 0012711 100.6144 259.6529 15.30513147146991
FLOCK 4P-10             
1 44808U 19081E   22201.75005009  .00027276  00000+0  97943-3 0  9994
2 44808  97.3989 266.4599 0012732 102.3587 257.9079 15.28563734146984
FLOCK 4P-11             
1 44809U 19081F   22201.71738077  .00029685  00000+0  10656-2 0  9990
2 44809  97.3988 266.4774 0012705 103.5770 256.6886 15.28556701146984
FLOCK 4P-4              
1 44811U 19081H   22201.71086562  .00018770  00000+0  64795-3 0  9995
2 44811  97.4049 267.2049 0011764  94.2607 265.9978 15.29939660147008
FLOCK 4P-3              
1 44812U 19081J   22201.74967164  .00022490  00000+0  76283-3 0  9994
2 44812  97.4036 267.2857 0011330  94.3831 265.8705 15.30479020147010
FLOCK 4P-1              
1 44814U 19081L   22201.72064442  .00021058  00000+0  77899-3 0  9994
2 44814  97.4015 266.4846 0011590  98.4109 261.8444 15.27651056146976
FLOCK 4P-7              
1 44816U 19081N   22201.70142786  .00025064  00000+0  90218-3 0  9993
2 44816  97.3995 266.6129 0011140  96.4671 263.7837 15.28520159146981
FLOCK 4P-5              
1 44818U 19081Q   22201.73433959  .00009707  00000+0  35292-3 0  9990
2 44818  97.4000 266.7406 0010798  97.3364 262.9103 15.28415613146993
GAOFEN 12-1             
1 44819U 19082A   22201.79508122  .00000299  00000+0  46005-4 0  9995
2 44819  97.8598 221.4947 0001633  84.3774 275.7623 14.80248131142875
ALE-2                   
1 44824U 19084A   22201.84919940  .00023762  00000+0  27828-3 0  9994
2 44824  96.8823  55.6010 0008501 340.8908  19.2031 15.61492150148905
COSMOS 2543             
1 44835U 19079D   22201.86330257  .00006616  00000+0  22256-3 0  9999
2 44835  97.7641 273.7768 0087235 323.3151  36.2134 15.27526649142859
JILIN-01 GAOFEN 2B      
1 44836U 19086A   22201.80525069  .00002470  00000+0  15810-3 0  9991
2 44836  97.4123 258.7398 0007142 257.8290 237.5702 15.09453752144334
2019-087A               
1 44838U 19087A   22201.77757395  .00013674  00000+0  48631-3 0  9994
2 44838  97.4835   2.2861 0012014 139.7957 345.4032 15.29037331145569
2019-087B               
1 44839U 19087B   22201.79112329  .00009716  00000+0  37667-3 0  9998
2 44839  97.4809   1.0857 0012492 144.3211 327.1785 15.26272700145513
2019-087C               
1 44840U 19087C   22201.79479229  .00009160  00000+0  34914-3 0  9990
2 44840  97.4890   2.4424 0011807 143.8585 323.7460 15.26864078145547
2019-087D               
1 44841U 19087D   22201.74905130  .00057826  00000+0  13211-2 0  9999
2 44841  97.4604   5.0590 0007489 121.1024   4.0541 15.42629555145841
2019-087E               
1 44842U 19087E   22201.77823527  .00009841  00000+0  37136-3 0  9999
2 44842  97.4788   1.3993 0011226 145.2935 327.8291 15.27181694145560
